[
    {
        "Altitude(m)": 554884.4093550387,
        "Argument of Periapsis(deg)": 0.006622991110713501,
        "Eccentricity": 0.0,
        "Inclination(deg)": 53.0,
        "Latitude(deg)": 28.941032207547927,
        "Longitude(deg)": 109.74517896688688,
        "Mean Anomaly(deg)": 142.81889286757757,
        "RAAN(deg)": 54.99014336852802,
        "Satellite Name": "Starlink Shell 1 250",
        "Satellite Number": 250,
        "Semi-Major Axis(m)": 6931778.249405717,
        "Time(s)": 190
    },
    {
        "Altitude(m)": 554814.4736471983,
        "Argument of Periapsis(deg)": 0.0069715695902247375,
        "Eccentricity": 0.0,
        "Inclination(deg)": 53.0,
        "Latitude(deg)": 28.482389872514442,
        "Longitude(deg)": 110.19292534175737,
        "Mean Anomaly(deg)": 143.4457240711343,
        "RAAN(deg)": 54.98962459845054,
        "Satellite Name": "Starlink Shell 1 250",
        "Satellite Number": 250,
        "Semi-Major Axis(m)": 6931778.249405717,
        "Time(s)": 200
    },
    {
        "Altitude(m)": 554745.7756723627,
        "Argument of Periapsis(deg)": 0.007320148069735974,
        "Eccentricity": 0.0,
        "Inclination(deg)": 53.0,
        "Latitude(deg)": 28.021973244693793,
        "Longitude(deg)": 110.6364597987349,
        "Mean Anomaly(deg)": 144.07255527469104,
        "RAAN(deg)": 54.98910582837308,
        "Satellite Name": "Starlink Shell 1 250",
        "Satellite Number": 250,
        "Semi-Major Axis(m)": 6931778.249405717,
        "Time(s)": 210
    },
    {
        "Altitude(m)": 554678.3676176073,
        "Argument of Periapsis(deg)": 0.007668726549247212,
        "Eccentricity": 0.0,
        "Inclination(deg)": 53.0,
        "Latitude(deg)": 27.559830229385177,
        "Longitude(deg)": 111.07588238743774,
        "Mean Anomaly(deg)": 144.69938647824773,
        "RAAN(deg)": 54.9885870582956,
        "Satellite Name": "Starlink Shell 1 250",
        "Satellite Number": 250,
        "Semi-Major Axis(m)": 6931778.249405717,
        "Time(s)": 220
    },
    {
        "Altitude(m)": 554612.3012085787,
        "Argument of Periapsis(deg)": 0.00801730502875845,
        "Eccentricity": 0.0,
        "Inclination(deg)": 53.0,
        "Latitude(deg)": 27.09600769734893,
        "Longitude(deg)": 111.51129183418468,
        "Mean Anomaly(deg)": 145.32621768180445,
        "RAAN(deg)": 54.98806828821812,
        "Satellite Name": "Starlink Shell 1 250",
        "Satellite Number": 250,
        "Semi-Major Axis(m)": 6931778.249405717,
        "Time(s)": 230
    },
    {
        "Altitude(m)": 554547.6276819548,
        "Argument of Periapsis(deg)": 0.008365883508269684,
        "Eccentricity": 0.0,
        "Inclination(deg)": 53.0,
        "Latitude(deg)": 26.63055151452539,
        "Longitude(deg)": 111.9427860479458,
        "Mean Anomaly(deg)": 145.95304888536114,
        "RAAN(deg)": 54.98754951814066,
        "Satellite Name": "Starlink Shell 1 250",
        "Satellite Number": 250,
        "Semi-Major Axis(m)": 6931778.249405717,
        "Time(s)": 240
    },
    {
        "Altitude(m)": 554484.3977580633,
        "Argument of Periapsis(deg)": 0.008714461987780921,
        "Eccentricity": 0.0,
        "Inclination(deg)": 53.0,
        "Latitude(deg)": 26.163506571270187,
        "Longitude(deg)": 112.3704611160812,
        "Mean Anomaly(deg)": 146.5798800889179,
        "RAAN(deg)": 54.987030748063184,
        "Satellite Name": "Starlink Shell 1 250",
        "Satellite Number": 250,
        "Semi-Major Axis(m)": 6931778.249405717,
        "Time(s)": 250
    },
    {
        "Altitude(m)": 554422.6616137936,
        "Argument of Periapsis(deg)": 0.009063040467292158,
        "Eccentricity": 0.0,
        "Inclination(deg)": 53.0,
        "Latitude(deg)": 25.694916811089296,
        "Longitude(deg)": 112.79441181539518,
        "Mean Anomaly(deg)": 147.2067112924746,
        "RAAN(deg)": 54.98651197798571,
        "Satellite Name": "Starlink Shell 1 250",
        "Satellite Number": 250,
        "Semi-Major Axis(m)": 6931778.249405717,
        "Time(s)": 260
    },
    {
        "Altitude(m)": 554362.4688556672,
        "Argument of Periapsis(deg)": 0.009411618946803396,
        "Eccentricity": 0.0,
        "Inclination(deg)": 53.0,
        "Latitude(deg)": 25.224825258863962,
        "Longitude(deg)": 113.21473212542338,
        "Mean Anomaly(deg)": 147.8335424960313,
        "RAAN(deg)": 54.985993207908244,
        "Satellite Name": "Starlink Shell 1 250",
        "Satellite Number": 250,
        "Semi-Major Axis(m)": 6931778.249405717,
        "Time(s)": 270
    },
    {
        "Altitude(m)": 554303.8684931719,
        "Argument of Periapsis(deg)": 0.009760197426314633,
        "Eccentricity": 0.0,
        "Inclination(deg)": 53.0,
        "Latitude(deg)": 24.753274048557135,
        "Longitude(deg)": 113.6315142308857,
        "Mean Anomaly(deg)": 148.46037369958805,
        "RAAN(deg)": 54.98547443783076,
        "Satellite Name": "Starlink Shell 1 250",
        "Satellite Number": 250,
        "Semi-Major Axis(m)": 6931778.249405717,
        "Time(s)": 280
    },
    {
        "Altitude(m)": 554246.9089123855,
        "Argument of Periapsis(deg)": 0.01010877590582587,
        "Eccentricity": 0.0,
        "Inclination(deg)": 53.0,
        "Latitude(deg)": 24.280304450394336,
        "Longitude(deg)": 114.04484903887065,
        "Mean Anomaly(deg)": 149.08720490314474,
        "RAAN(deg)": 54.98495566775329,
        "Satellite Name": "Starlink Shell 1 250",
        "Satellite Number": 250,
        "Semi-Major Axis(m)": 6931778.249405717,
        "Time(s)": 290
    },
    {
        "Altitude(m)": 554191.637849827,
        "Argument of Periapsis(deg)": 0.010457354385337106,
        "Eccentricity": 0.0,
        "Inclination(deg)": 53.0,
        "Latitude(deg)": 23.805956897514594,
        "Longitude(deg)": 114.45482669771121,
        "Mean Anomaly(deg)": 149.71403610670146,
        "RAAN(deg)": 54.98443689767582,
        "Satellite Name": "Starlink Shell 1 250",
        "Satellite Number": 250,
        "Semi-Major Axis(m)": 6931778.249405717,
        "Time(s)": 300
    },
    {
        "Altitude(m)": 554138.1023666045,
        "Argument of Periapsis(deg)": 0.010805932864848343,
        "Eccentricity": 0.0,
        "Inclination(deg)": 53.0,
        "Latitude(deg)": 23.330271012091462,
        "Longitude(deg)": 114.86153560451802,
        "Mean Anomaly(deg)": 150.34086731025818,
        "RAAN(deg)": 54.98391812759834,
        "Satellite Name": "Starlink Shell 1 250",
        "Satellite Number": 250,
        "Semi-Major Axis(m)": 6931778.249405717,
        "Time(s)": 310
    },
    {
        "Altitude(m)": 554086.3488228844,
        "Argument of Periapsis(deg)": 0.01115451134435958,
        "Eccentricity": 0.0,
        "Inclination(deg)": 53.0,
        "Latitude(deg)": 22.853285630921725,
        "Longitude(deg)": 115.26506292697395,
        "Mean Anomaly(deg)": 150.96769851381487,
        "RAAN(deg)": 54.983399357520874,
        "Satellite Name": "Starlink Shell 1 250",
        "Satellite Number": 250,
        "Semi-Major Axis(m)": 6931778.249405717,
        "Time(s)": 320
    },
    {
        "Altitude(m)": 554036.4228526433,
        "Argument of Periapsis(deg)": 0.011503089823870818,
        "Eccentricity": 0.0,
        "Inclination(deg)": 53.0,
        "Latitude(deg)": 22.37503883048354,
        "Longitude(deg)": 115.66549512638024,
        "Mean Anomaly(deg)": 151.59452971737161,
        "RAAN(deg)": 54.9828805874434,
        "Satellite Name": "Starlink Shell 1 250",
        "Satellite Number": 250,
        "Semi-Major Axis(m)": 6931778.249405717,
        "Time(s)": 330
    },
    {
        "Altitude(m)": 553988.3693387699,
        "Argument of Periapsis(deg)": 0.011851668303382053,
        "Eccentricity": 0.0,
        "Inclination(deg)": 53.0,
        "Latitude(deg)": 21.895567951468657,
        "Longitude(deg)": 116.06291696895418,
        "Mean Anomaly(deg)": 152.2213609209283,
        "RAAN(deg)": 54.98236181736593,
        "Satellite Name": "Starlink Shell 1 250",
        "Satellite Number": 250,
        "Semi-Major Axis(m)": 6931778.249405717,
        "Time(s)": 340
    },
    {
        "Altitude(m)": 553942.2323884867,
        "Argument of Periapsis(deg)": 0.012200246782893292,
        "Eccentricity": 0.0,
        "Inclination(deg)": 53.0,
        "Latitude(deg)": 21.41490962279067,
        "Longitude(deg)": 116.45741205101001,
        "Mean Anomaly(deg)": 152.84819212448505,
        "RAAN(deg)": 54.98184304728846,
        "Satellite Name": "Starlink Shell 1 250",
        "Satellite Number": 250,
        "Semi-Major Axis(m)": 6931778.249405717,
        "Time(s)": 350
    },
    {
        "Altitude(m)": 553898.0553091316,
        "Argument of Periapsis(deg)": 0.012548825262404526,
        "Eccentricity": 0.0,
        "Inclination(deg)": 53.0,
        "Latitude(deg)": 20.933099785075385,
        "Longitude(deg)": 116.84906332504217,
        "Mean Anomaly(deg)": 153.47502332804177,
        "RAAN(deg)": 54.98132427721097,
        "Satellite Name": "Starlink Shell 1 250",
        "Satellite Number": 250,
        "Semi-Major Axis(m)": 6931778.249405717,
        "Time(s)": 360
    },
    {
        "Altitude(m)": 553855.8805843133,
        "Argument of Periapsis(deg)": 0.012897403741915765,
        "Eccentricity": 0.0,
        "Inclination(deg)": 53.0,
        "Latitude(deg)": 20.450173713641007,
        "Longitude(deg)": 117.23795211373623,
        "Mean Anomaly(deg)": 154.10185453159846,
        "RAAN(deg)": 54.98080550713351,
        "Satellite Name": "Starlink Shell 1 250",
        "Satellite Number": 250,
        "Semi-Major Axis(m)": 6931778.249405717,
        "Time(s)": 370
    }
]